[{"OBJECT_NAME":"ONEWEB-0018","OBJECT_ID":"2020-020L","EPOCH":"2026-05-29T01:37:04.148832","MEAN_MOTION":13.11417158,"ECCENTRICITY":0.000174,"INCLINATION":87.8909,"RA_OF_ASC_NODE":24.8708,"ARG_OF_PERICENTER":69.8222,"MEAN_ANOMALY":290.3093,"EPHEMERIS_TYPE":0,"CLASSIFICATION_TYPE":"U","NORAD_CAT_ID":45434,"ELEMENT_SET_NO":999,"REV_AT_EPOCH":30012,"BSTAR":-0.0013289,"MEAN_MOTION_DOT":-4.58e-06,"MEAN_MOTION_DDOT":0.0},{"OBJECT_NAME":"ONEWEB-0083","OBJECT_ID":"2020-020M","EPOCH":"2026-05-28T16:13:17.093856","MEAN_MOTION":13.11414534,"ECCENTRICITY":0.000172,"INCLINATION":87.8913,"RA_OF_ASC_NODE":24.9411,"ARG_OF_PERICENTER":81.0763,"MEAN_ANOMALY":279.056,"EPHEMERIS_TYPE":0,"CLASSIFICATION_TYPE":"U","NORAD_CAT_ID":45435,"ELEMENT_SET_NO":999,"REV_AT_EPOCH":30011,"BSTAR":-0.0012928,"MEAN_MOTION_DOT":-4.45e-06,"MEAN_MOTION_DDOT":0.0},{"OBJECT_NAME":"ONEWEB-0095","OBJECT_ID":"2020-020N","EPOCH":"2026-05-29T04:50:09.300192","MEAN_MOTION":13.11416866,"ECCENTRICITY":0.0002145,"INCLINATION":87.8913,"RA_OF_ASC_NODE":24.8448,"ARG_OF_PERICENTER":102.441,"MEAN_ANOMALY":257.6958,"EPHEMERIS_TYPE":0,"CLASSIFICATION_TYPE":"U","NORAD_CAT_ID":45436,"ELEMENT_SET_NO":999,"REV_AT_EPOCH":30018,"BSTAR":-5.9771e-05,"MEAN_MOTION_DOT":-8e-08,"MEAN_MOTION_DDOT":0.0},{"OBJECT_NAME":"ONEWEB-0092","OBJECT_ID":"2020-020P","EPOCH":"2026-05-29T02:02:22.107840","MEAN_MOTION":13.11955869,"ECCENTRICITY":0.0002063,"INCLINATION":87.8914,"RA_OF_ASC_NODE":24.8624,"ARG_OF_PERICENTER":89.1176,"MEAN_ANOMALY":271.0189,"EPHEMERIS_TYPE":0,"CLASSIFICATION_TYPE":"U","NORAD_CAT_ID":45437,"ELEMENT_SET_NO":999,"REV_AT_EPOCH":30028,"BSTAR":0.00010009,"MEAN_MOTION_DOT":4.8e-07,"MEAN_MOTION_DDOT":0.0},{"OBJECT_NAME":"ONEWEB-0085","OBJECT_ID":"2020-020Q","EPOCH":"2026-05-29T01:22:13.917792","MEAN_MOTION":13.11415091,"ECCENTRICITY":0.0001779,"INCLINATION":87.8904,"RA_OF_ASC_NODE":24.8737,"ARG_OF_PERICENTER":82.8865,"MEAN_ANOMALY":277.2465,"EPHEMERIS_TYPE":0,"CLASSIFICATION_TYPE":"U","NORAD_CAT_ID":45438,"ELEMENT_SET_NO":999,"REV_AT_EPOCH":30016,"BSTAR":-0.0010063,"MEAN_MOTION_DOT":-3.44e-06,"MEAN_MOTION_DDOT":0.0},{"OBJECT_NAME":"ONEWEB-0096","OBJECT_ID":"2020-020R","EPOCH":"2026-05-29T01:24:52.675200","MEAN_MOTION":13.11415812,"ECCENTRICITY":0.0001867,"INCLINATION":87.8915,"RA_OF_ASC_NODE":24.8673,"ARG_OF_PERICENTER":81.5714,"MEAN_ANOMALY":278.5625,"EPHEMERIS_TYPE":0,"CLASSIFICATION_TYPE":"U","NORAD_CAT_ID":45439,"ELEMENT_SET_NO":999,"REV_AT_EPOCH":30015,"BSTAR":-0.0010556,"MEAN_MOTION_DOT":-3.61e-06,"MEAN_MOTION_DDOT":0.0},{"OBJECT_NAME":"ONEWEB-0037","OBJECT_ID":"2020-020S","EPOCH":"2026-05-29T04:13:01.687008","MEAN_MOTION":13.11912206,"ECCENTRICITY":0.0001851,"INCLINATION":87.8924,"RA_OF_ASC_NODE":24.8189,"ARG_OF_PERICENTER":85.67,"MEAN_ANOMALY":274.464,"EPHEMERIS_TYPE":0,"CLASSIFICATION_TYPE":"U","NORAD_CAT_ID":45440,"ELEMENT_SET_NO":999,"REV_AT_EPOCH":30020,"BSTAR":0.0013095000000000001,"MEAN_MOTION_DOT":4.8e-06,"MEAN_MOTION_DDOT":0.0},{"OBJECT_NAME":"ONEWEB-0042","OBJECT_ID":"2020-020T","EPOCH":"2026-05-29T04:49:45.641280","MEAN_MOTION":13.11414987,"ECCENTRICITY":0.000188,"INCLINATION":87.8912,"RA_OF_ASC_NODE":24.8358,"ARG_OF_PERICENTER":81.5156,"MEAN_ANOMALY":278.6185,"EPHEMERIS_TYPE":0,"CLASSIFICATION_TYPE":"U","NORAD_CAT_ID":45441,"ELEMENT_SET_NO":999,"REV_AT_EPOCH":30017,"BSTAR":3.7207000000000005e-05,"MEAN_MOTION_DOT":2.6e-07,"MEAN_MOTION_DDOT":0.0},{"OBJECT_NAME":"ONEWEB-0098","OBJECT_ID":"2020-020U","EPOCH":"2026-05-29T04:43:51.328704","MEAN_MOTION":13.11414337,"ECCENTRICITY":0.0001718,"INCLINATION":87.891,"RA_OF_ASC_NODE":24.8461,"ARG_OF_PERICENTER":80.8181,"MEAN_ANOMALY":279.3141,"EPHEMERIS_TYPE":0,"CLASSIFICATION_TYPE":"U","NORAD_CAT_ID":45442,"ELEMENT_SET_NO":999,"REV_AT_EPOCH":30015,"BSTAR":0.00039492,"MEAN_MOTION_DOT":1.53e-06,"MEAN_MOTION_DDOT":0.0},{"OBJECT_NAME":"ONEWEB-0055","OBJECT_ID":"2020-020V","EPOCH":"2026-05-29T04:13:08.426208","MEAN_MOTION":13.11415525,"ECCENTRICITY":0.0001696,"INCLINATION":87.8914,"RA_OF_ASC_NODE":24.8489,"ARG_OF_PERICENTER":82.4046,"MEAN_ANOMALY":277.7275,"EPHEMERIS_TYPE":0,"CLASSIFICATION_TYPE":"U","NORAD_CAT_ID":45443,"ELEMENT_SET_NO":999,"REV_AT_EPOCH":30012,"BSTAR":0.0016194,"MEAN_MOTION_DOT":5.87e-06,"MEAN_MOTION_DDOT":0.0},{"OBJECT_NAME":"ONEWEB-0093","OBJECT_ID":"2020-020W","EPOCH":"2026-05-28T16:45:02.143872","MEAN_MOTION":13.11419147,"ECCENTRICITY":0.0002147,"INCLINATION":87.8916,"RA_OF_ASC_NODE":24.9364,"ARG_OF_PERICENTER":76.8388,"MEAN_ANOMALY":283.298,"EPHEMERIS_TYPE":0,"CLASSIFICATION_TYPE":"U","NORAD_CAT_ID":45444,"ELEMENT_SET_NO":999,"REV_AT_EPOCH":30012,"BSTAR":-0.0005186100000000001,"MEAN_MOTION_DOT":-1.71e-06,"MEAN_MOTION_DDOT":0.0},{"OBJECT_NAME":"ONEWEB-0029","OBJECT_ID":"2020-020X","EPOCH":"2026-05-29T04:23:13.367904","MEAN_MOTION":13.11206197,"ECCENTRICITY":0.0002681,"INCLINATION":87.89,"RA_OF_ASC_NODE":24.8514,"ARG_OF_PERICENTER":74.1423,"MEAN_ANOMALY":286.0,"EPHEMERIS_TYPE":0,"CLASSIFICATION_TYPE":"U","NORAD_CAT_ID":45445,"ELEMENT_SET_NO":999,"REV_AT_EPOCH":30016,"BSTAR":0.09592200000000001,"MEAN_MOTION_DOT":0.0003403,"MEAN_MOTION_DDOT":0.0},{"OBJECT_NAME":"ONEWEB-0068","OBJECT_ID":"2020-020Y","EPOCH":"2026-05-29T01:53:58.278336","MEAN_MOTION":13.11418027,"ECCENTRICITY":0.000189,"INCLINATION":87.8917,"RA_OF_ASC_NODE":24.8644,"ARG_OF_PERICENTER":76.9706,"MEAN_ANOMALY":283.1633,"EPHEMERIS_TYPE":0,"CLASSIFICATION_TYPE":"U","NORAD_CAT_ID":45446,"ELEMENT_SET_NO":999,"REV_AT_EPOCH":30009,"BSTAR":-0.00054432,"MEAN_MOTION_DOT":-1.8e-06,"MEAN_MOTION_DDOT":0.0},{"OBJECT_NAME":"ONEWEB-0046","OBJECT_ID":"2020-020Z","EPOCH":"2026-05-29T01:41:57.165792","MEAN_MOTION":13.11418401,"ECCENTRICITY":0.0002053,"INCLINATION":87.891,"RA_OF_ASC_NODE":24.8729,"ARG_OF_PERICENTER":82.2561,"MEAN_ANOMALY":277.88,"EPHEMERIS_TYPE":0,"CLASSIFICATION_TYPE":"U","NORAD_CAT_ID":45447,"ELEMENT_SET_NO":999,"REV_AT_EPOCH":30010,"BSTAR":-0.0011908,"MEAN_MOTION_DOT":-4.09e-06,"MEAN_MOTION_DDOT":0.0},{"OBJECT_NAME":"ONEWEB-0063","OBJECT_ID":"2020-020AA","EPOCH":"2026-05-29T04:13:33.536640","MEAN_MOTION":13.11419189,"ECCENTRICITY":0.0002017,"INCLINATION":87.8916,"RA_OF_ASC_NODE":24.8503,"ARG_OF_PERICENTER":89.1496,"MEAN_ANOMALY":270.9863,"EPHEMERIS_TYPE":0,"CLASSIFICATION_TYPE":"U","NORAD_CAT_ID":45448,"ELEMENT_SET_NO":999,"REV_AT_EPOCH":30020,"BSTAR":0.0011447,"MEAN_MOTION_DOT":4.18e-06,"MEAN_MOTION_DDOT":0.0},{"OBJECT_NAME":"ONEWEB-0019","OBJECT_ID":"2020-020AB","EPOCH":"2026-05-29T01:29:32.823744","MEAN_MOTION":13.1141561,"ECCENTRICITY":0.0001629,"INCLINATION":87.8908,"RA_OF_ASC_NODE":24.8603,"ARG_OF_PERICENTER":82.527,"MEAN_ANOMALY":277.6043,"EPHEMERIS_TYPE":0,"CLASSIFICATION_TYPE":"U","NORAD_CAT_ID":45449,"ELEMENT_SET_NO":999,"REV_AT_EPOCH":30003,"BSTAR":-0.0014046,"MEAN_MOTION_DOT":-4.85e-06,"MEAN_MOTION_DDOT":0.0}]