ONEWEB-0018             
1 45434U 20020L   26149.06740913 -.00000458  00000+0 -13289-2 0  9999
2 45434  87.8909  24.8708 0001740  69.8222 290.3093 13.11417158300127
ONEWEB-0083             
1 45435U 20020M   26148.67589229 -.00000445  00000+0 -12928-2 0  9992
2 45435  87.8913  24.9411 0001720  81.0763 279.0560 13.11414534300116
ONEWEB-0095             
1 45436U 20020N   26149.20149653 -.00000008  00000+0 -59771-4 0  9990
2 45436  87.8913  24.8448 0002145 102.4410 257.6958 13.11416866300185
ONEWEB-0092             
1 45437U 20020P   26149.08497810  .00000048  00000+0  10009-3 0  9990
2 45437  87.8914  24.8624 0002063  89.1176 271.0189 13.11955869300280
ONEWEB-0085             
1 45438U 20020Q   26149.05710553 -.00000344  00000+0 -10063-2 0  9990
2 45438  87.8904  24.8737 0001779  82.8865 277.2465 13.11415091300163
ONEWEB-0096             
1 45439U 20020R   26149.05894300 -.00000361  00000+0 -10556-2 0  9990
2 45439  87.8915  24.8673 0001867  81.5714 278.5625 13.11415812300154
ONEWEB-0037             
1 45440U 20020S   26149.17571397  .00000480  00000+0  13095-2 0  9994
2 45440  87.8924  24.8189 0001851  85.6700 274.4640 13.11912206300208
ONEWEB-0042             
1 45441U 20020T   26149.20122270  .00000026  00000+0  37207-4 0  9990
2 45441  87.8912  24.8358 0001880  81.5156 278.6185 13.11414987300175
ONEWEB-0098             
1 45442U 20020U   26149.19712186  .00000153  00000+0  39492-3 0  9998
2 45442  87.8910  24.8461 0001718  80.8181 279.3141 13.11414337300156
ONEWEB-0055             
1 45443U 20020V   26149.17579197  .00000587  00000+0  16194-2 0  9994
2 45443  87.8914  24.8489 0001696  82.4046 277.7275 13.11415525300121
ONEWEB-0093             
1 45444U 20020W   26148.69794148 -.00000171  00000+0 -51861-3 0  9998
2 45444  87.8916  24.9364 0002147  76.8388 283.2980 13.11419147300124
ONEWEB-0029             
1 45445U 20020X   26149.18279361  .00034030  00000+0  95922-1 0  9992
2 45445  87.8900  24.8514 0002681  74.1423 286.0000 13.11206197300165
ONEWEB-0068             
1 45446U 20020Y   26149.07914674 -.00000180  00000+0 -54432-3 0  9998
2 45446  87.8917  24.8644 0001890  76.9706 283.1633 13.11418027300092
ONEWEB-0046             
1 45447U 20020Z   26149.07080053 -.00000409  00000+0 -11908-2 0  9998
2 45447  87.8910  24.8729 0002053  82.2561 277.8800 13.11418401300105
ONEWEB-0063             
1 45448U 20020AA  26149.17608260  .00000418  00000+0  11447-2 0  9992
2 45448  87.8916  24.8503 0002017  89.1496 270.9863 13.11419189300203
ONEWEB-0019             
1 45449U 20020AB  26149.06218546 -.00000485  00000+0 -14046-2 0  9999
2 45449  87.8908  24.8603 0001629  82.5270 277.6043 13.11415610300031
